IRIDIUM 155             
1 43573U 18061E   24164.09975315  .00000372  00000+0  12575-3 0  9998
2 43573  86.3973   3.8859 0002050  95.2101 264.9329 14.34216513308004
IRIDIUM 154             
1 43574U 18061F   24163.59234350  .00000035  00000+0  55037-5 0  9998
2 43574  86.3977   4.1954 0002209  82.2062 277.9384 14.34217663307974
IRIDIUM 163             
1 43575U 18061G   24164.06169500 -.00000057  00000+0 -27258-4 0  9995
2 43575  86.3974   3.9376 0002102  88.3147 271.8290 14.34217464308014
IRIDIUM 156             
1 43576U 18061H   24164.10609578  .00000419  00000+0  14254-3 0  9996
2 43576  86.3976   3.9255 0002248  91.1068 269.0385 14.34215791308002
IRIDIUM 164             
1 43577U 18061J   24164.08706170  .00000348  00000+0  11714-3 0  9999
2 43577  86.3974   3.9622 0002437  84.6140 275.5333 14.34220473308050
IRIDIUM 159             
1 43578U 18061K   24163.56697333  .00000127  00000+0  38296-4 0  9992
2 43578  86.3975   4.1318 0002271  81.4020 278.7433 14.34217723307942
IRIDIUM 180             
1 43922U 19002A   24163.42693181  .00000005  00000+0 -52178-5 0  9995
2 43922  86.3948 301.0703 0002015  90.7721 269.3705 14.34216886283534
IRIDIUM 176             
1 43923U 19002B   24164.15621366  .00001486  00000+0  23181-3 0  9996
2 43923  86.6082 300.7871 0002417  87.7891 272.3603 14.72249860291102
IRIDIUM 168             
1 43924U 19002C   24163.42058723  .00000316  00000+0  10572-3 0  9998
2 43924  86.3954 301.1293 0002325  94.2049 265.9412 14.34219981283518
IRIDIUM 173             
1 43925U 19002D   24163.89628380  .00000252  00000+0  83010-4 0  9999
2 43925  86.3954 300.8493 0002161  90.1709 269.9735 14.34218276283577
IRIDIUM 169             
1 43926U 19002E   24164.18700725  .00000638  00000+0  20227-3 0  9995
2 43926  86.4220 332.3550 0000727 163.7985 196.3236 14.38599879284551
IRIDIUM 172             
1 43927U 19002F   24163.47132993  .00000092  00000+0  25757-4 0  9991
2 43927  86.3953 301.0328 0002259  90.7943 269.3512 14.34218180283517
IRIDIUM 175             
1 43928U 19002G   24164.01457207  .00001819  00000+0  28455-3 0  9996
2 43928  86.1503 274.2750 0001849  94.8683 265.2745 14.72237597291075
IRIDIUM 171             
1 43929U 19002H   24163.80114273  .00000322  00000+0  10775-3 0  9990
2 43929  86.3964 301.1201 0002437  94.2233 265.9241 14.34218508283550
IRIDIUM 170             
1 43930U 19002J   24163.75458278  .00001795  00000+0  28075-3 0  9999
2 43930  86.6081 300.9598 0002330  86.7566 273.3917 14.72254949291056
IRIDIUM 167             
1 43931U 19002K   24163.93434017  .00000081  00000+0  22024-4 0  9991
2 43931  86.3954 300.8552 0002201  94.4554 265.6893 14.34217615283574
IRIDIUM 181             
1 56726U 23068S   24163.56174320  .00000723  00000+0  20762-3 0  9990
2 56726  86.8638 354.4719 0002263  94.3394 265.8066 14.43597449 56324
IRIDIUM 177             
1 56727U 23068T   24163.41147612  .00002786  00000+0  36303-3 0  9998
2 56727  86.1968 318.1034 0002615  93.7963 266.3557 14.80237684 57524
IRIDIUM 174             
1 56728U 23068U   24164.14966981  .00002137  00000+0  27777-3 0  9993
2 56728  86.1974 317.8558 0002098  95.0664 265.0796 14.80221231 57631
IRIDIUM 178             
1 56729U 23068V   24164.21195959  .00002384  00000+0  31020-3 0  9991
2 56729  86.5779 335.0566 0001915  87.6013 272.5427 14.80248936 57648
IRIDIUM 179             
1 56730U 23068W   24164.00355150  .00000798  00000+0  10170-3 0  9991
2 56730  86.6788 339.2148 0002053  92.0667 268.0789 14.80197922 57618
